{
  "type": "FeatureCollection",
  "features": [
    {
      "type": "Feature",
      "properties": {
        "norad_id": 65731,
        "name": "1998-067XK",
        "group": "stations",
        "lat": 33.62751233786102,
        "lon": 140.8346386160338,
        "alt_km": 365.54972333571277,
        "timestamp": "2025-12-18T07:01:53.362855+00:00",
        "meta_object_name": "1998-067XK",
        "meta_object_id": "1998-067XK",
        "meta_epoch": "2025-12-17T14:00:04.713696",
        "meta_mean_motion": 15.66666293,
        "meta_eccentricity": 0.00047593,
        "meta_inclination": 51.6289,
        "meta_ra_of_asc_node": 112.64,
        "meta_arg_of_pericenter": 277.2608,
        "meta_mean_anomaly": 82.7846,
        "meta_ephemeris_type": 0,
        "meta_classification_type": "U",
        "meta_norad_cat_id": 65731,
        "meta_element_set_no": 999,
        "meta_rev_at_epoch": 1390,
        "meta_bstar": 0.00079228691,
        "meta_mean_motion_dot": 0.00085225,
        "meta_mean_motion_ddot": 0,
        "tle_line1": "1 65731U 98067XK  25351.58338789  .00085225  00000+0  79229-3 0  9992",
        "tle_line2": "2 65731  51.6289 112.6400 0004759 277.2608  82.7846 15.66666293 13904"
      },
      "geometry": {
        "type": "Point",
        "coordinates": [
          140.8346386160338,
          33.62751233786102
        ]
      }
    },
    {
      "type": "Feature",
      "properties": {
        "norad_id": 65732,
        "name": "RSP-03",
        "group": "stations",
        "lat": 50.21104526962571,
        "lon": -179.723385836528,
        "alt_km": 355.2900531080659,
        "timestamp": "2025-12-18T07:01:53.362866+00:00",
        "meta_object_name": "RSP-03",
        "meta_object_id": "1998-067XL",
        "meta_epoch": "2025-12-17T13:53:35.595744",
        "meta_mean_motion": 15.69845633,
        "meta_eccentricity": 0.0005617,
        "meta_inclination": 51.6262,
        "meta_ra_of_asc_node": 111.8477,
        "meta_arg_of_pericenter": 283.4279,
        "meta_mean_anomaly": 76.6092,
        "meta_ephemeris_type": 0,
        "meta_classification_type": "U",
        "meta_norad_cat_id": 65732,
        "meta_element_set_no": 999,
        "meta_rev_at_epoch": 1392,
        "meta_bstar": 0.00093703449,
        "meta_mean_motion_dot": 0.00115432,
        "meta_mean_motion_ddot": 0,
        "tle_line1": "1 65732U 98067XL  25351.57888421  .00115432  00000+0  93703-3 0  9992",
        "tle_line2": "2 65732  51.6262 111.8477 0005617 283.4279  76.6092 15.69845633 13925"
      },
      "geometry": {
        "type": "Point",
        "coordinates": [
          -179.723385836528,
          50.21104526962571
        ]
      }
    },
    {
      "type": "Feature",
      "properties": {
        "norad_id": 65733,
        "name": "GHS-01",
        "group": "stations",
        "lat": 36.399266198321435,
        "lon": -109.1563482230634,
        "alt_km": 338.69927696102513,
        "timestamp": "2025-12-18T07:01:53.362879+00:00",
        "meta_object_name": "GHS-01",
        "meta_object_id": "1998-067XM",
        "meta_epoch": "2025-12-17T15:16:18.486912",
        "meta_mean_motion": 15.76951537,
        "meta_eccentricity": 0.00078677,
        "meta_inclination": 51.6275,
        "meta_ra_of_asc_node": 109.9788,
        "meta_arg_of_pericenter": 312.8661,
        "meta_mean_anomaly": 47.1678,
        "meta_ephemeris_type": 0,
        "meta_classification_type": "U",
        "meta_norad_cat_id": 65733,
        "meta_element_set_no": 999,
        "meta_rev_at_epoch": 1395,
        "meta_bstar": 0.001249396,
        "meta_mean_motion_dot": 0.00211757,
        "meta_mean_motion_ddot": 0,
        "tle_line1": "1 65733U 98067XM  25351.63632508  .00211757  00000+0  12494-2 0  9997",
        "tle_line2": "2 65733  51.6275 109.9788 0007867 312.8661  47.1678 15.76951537 13959"
      },
      "geometry": {
        "type": "Point",
        "coordinates": [
          -109.1563482230634,
          36.399266198321435
        ]
      }
    },
    {
      "type": "Feature",
      "properties": {
        "norad_id": 65941,
        "name": "YOTSUBA-KULOVER",
        "group": "stations",
        "lat": 28.064016752854968,
        "lon": 137.03719808355487,
        "alt_km": 383.64698485964436,
        "timestamp": "2025-12-18T07:01:53.362890+00:00",
        "meta_object_name": "YOTSUBA-KULOVER",
        "meta_object_id": "1998-067XN",
        "meta_epoch": "2025-12-17T17:02:18.705408",
        "meta_mean_motion": 15.6011866,
        "meta_eccentricity": 0.00015575,
        "meta_inclination": 51.6282,
        "meta_ra_of_asc_node": 114.9832,
        "meta_arg_of_pericenter": 303.5564,
        "meta_mean_anomaly": 56.528,
        "meta_ephemeris_type": 0,
        "meta_classification_type": "U",
        "meta_norad_cat_id": 65941,
        "meta_element_set_no": 999,
        "meta_rev_at_epoch": 1063,
        "meta_bstar": 0.00071726351,
        "meta_mean_motion_dot": 0.00059314,
        "meta_mean_motion_ddot": 0,
        "tle_line1": "1 65941U 98067XN  25351.70993872  .00059314  00000+0  71726-3 0  9993",
        "tle_line2": "2 65941  51.6282 114.9832 0001557 303.5564  56.5280 15.60118660 10633"
      },
      "geometry": {
        "type": "Point",
        "coordinates": [
          137.03719808355487,
          28.064016752854968
        ]
      }
    },
    {
      "type": "Feature",
      "properties": {
        "norad_id": 65942,
        "name": "BOTAN",
        "group": "stations",
        "lat": 50.13852290534614,
        "lon": -177.1747641767475,
        "alt_km": 370.8989337591938,
        "timestamp": "2025-12-18T07:01:53.362901+00:00",
        "meta_object_name": "BOTAN",
        "meta_object_id": "1998-067XP",
        "meta_epoch": "2025-12-17T16:53:46.535712",
        "meta_mean_motion": 15.63910316,
        "meta_eccentricity": 0.00028443,
        "meta_inclination": 51.6283,
        "meta_ra_of_asc_node": 114.1939,
        "meta_arg_of_pericenter": 279.5083,
        "meta_mean_anomaly": 80.559,
        "meta_ephemeris_type": 0,
        "meta_classification_type": "U",
        "meta_norad_cat_id": 65942,
        "meta_element_set_no": 999,
        "meta_rev_at_epoch": 1064,
        "meta_bstar": 0.00099083952,
        "meta_mean_motion_dot": 0.00095662,
        "meta_mean_motion_ddot": 0,
        "tle_line1": "1 65942U 98067XP  25351.70401083  .00095662  00000+0  99084-3 0  9995",
        "tle_line2": "2 65942  51.6283 114.1939 0002844 279.5083  80.5590 15.63910316 10646"
      },
      "geometry": {
        "type": "Point",
        "coordinates": [
          -177.1747641767475,
          50.13852290534614
        ]
      }
    },
    {
      "type": "Feature",
      "properties": {
        "norad_id": 65943,
        "name": "E-KAGAKU-1",
        "group": "stations",
        "lat": 27.64770327788425,
        "lon": 136.57699628236264,
        "alt_km": 384.56641501701233,
        "timestamp": "2025-12-18T07:01:53.362911+00:00",
        "meta_object_name": "E-KAGAKU-1",
        "meta_object_id": "1998-067XQ",
        "meta_epoch": "2025-12-17T17:02:27.271104",
        "meta_mean_motion": 15.60109171,
        "meta_eccentricity": 0.0001423,
        "meta_inclination": 51.6296,
        "meta_ra_of_asc_node": 114.9884,
        "meta_arg_of_pericenter": 240.8217,
        "meta_mean_anomaly": 119.2634,
        "meta_ephemeris_type": 0,
        "meta_classification_type": "U",
        "meta_norad_cat_id": 65943,
        "meta_element_set_no": 999,
        "meta_rev_at_epoch": 1063,
        "meta_bstar": 0.0007379067,
        "meta_mean_motion_dot": 0.00061026,
        "meta_mean_motion_ddot": 0,
        "tle_line1": "1 65943U 98067XQ  25351.71003786  .00061026  00000+0  73791-3 0  9999",
        "tle_line2": "2 65943  51.6296 114.9884 0001423 240.8217 119.2634 15.60109171 10634"
      },
      "geometry": {
        "type": "Point",
        "coordinates": [
          136.57699628236264,
          27.64770327788425
        ]
      }
    },
    {
      "type": "Feature",
      "properties": {
        "norad_id": 66052,
        "name": "HRC MONOBLOCK CAMERA",
        "group": "stations",
        "lat": -51.60619942446562,
        "lon": 24.630741167202054,
        "alt_km": 407.2925553187697,
        "timestamp": "2025-12-18T07:01:53.362923+00:00",
        "meta_object_name": "HRC MONOBLOCK CAMERA",
        "meta_object_id": "1998-067XR",
        "meta_epoch": "2025-12-17T20:36:55.440000",
        "meta_mean_motion": 15.54495982,
        "meta_eccentricity": 0.00027135,
        "meta_inclination": 51.6291,
        "meta_ra_of_asc_node": 115.974,
        "meta_arg_of_pericenter": 206.7069,
        "meta_mean_anomaly": 153.3783,
        "meta_ephemeris_type": 0,
        "meta_classification_type": "U",
        "meta_norad_cat_id": 66052,
        "meta_element_set_no": 999,
        "meta_rev_at_epoch": 963,
        "meta_bstar": 0.00045614102,
        "meta_mean_motion_dot": 0.0003024,
        "meta_mean_motion_ddot": 0,
        "tle_line1": "1 66052U 98067XR  25351.85897500  .00030240  00000+0  45614-3 0  9998",
        "tle_line2": "2 66052  51.6291 115.9740 0002713 206.7069 153.3783 15.54495982  9635"
      },
      "geometry": {
        "type": "Point",
        "coordinates": [
          24.630741167202054,
          -51.60619942446562
        ]
      }
    }
  ]
}